SAR-LUPE 2              
1 31797U 07030A   26159.82204976  .00017202  00000+0  32042-3 0  9993
2 31797  98.1017 263.2294 0007453 152.7074 207.4568 15.48899047 55645
SAPPHIRE                
1 39088U 13009C   26159.79606306  .00000110  00000+0  53498-4 0  9995
2 39088  98.4259 339.4514 0009974 274.6585  85.3461 14.35238226695375
PRAETORIAN SDA_602      
1 65565U 25203A   26159.85685638  .00000040  00000+0  25398-4 0  9995
2 65565  81.3036  18.4861 0005356 208.0673 152.0195 13.84342048 37542
PRAETORIAN SDA_603      
1 65566U 25203B   26159.01332556  .00000213  00000+0  18140-3 0  9990
2 65566  81.3044  19.1782 0008850 213.7345 146.3249 13.83904955 37437
PRAETORIAN SDA_604      
1 65567U 25203C   26159.75079395  .00000104  00000+0  84106-4 0  9996
2 65567  81.3058  18.8945 0004851 216.9480 143.1342 13.83046988 37513
PRAETORIAN SDA_605      
1 65568U 25203D   26159.86312860  .00000061  00000+0  44863-4 0  9994
2 65568  81.3024  18.4616 0007663 206.4659 153.6107 13.83433721 37547
PRAETORIAN SDA_606      
1 65569U 25203E   26159.84551498  .00000056  00000+0  40253-4 0  9998
2 65569  81.3059  18.6963 0005275 205.0271 155.0630 13.83406579 37532
PRAETORIAN SDA_607      
1 65570U 25203F   26159.85882916  .00000116  00000+0  93334-4 0  9998
2 65570  81.3043  18.3597 0008250 211.3769 148.6897 13.84283890 37550
PRAETORIAN SDA_608      
1 65571U 25203G   26159.11038372  .00000082  00000+0  63344-4 0  9997
2 65571  81.3012  19.2113 0005353 217.6845 142.3937 13.83816274 37436
PRAETORIAN SDA_609      
1 65572U 25203H   26159.11806953  .00000215  00000+0  18236-3 0  9993
2 65572  81.3056  19.1890 0006240 210.8341 149.2450 13.84284831 37444
PRAETORIAN SDA_610      
1 65573U 25203J   26159.74108227  .00000050  00000+0  34803-4 0  9998
2 65573  81.3013  18.5857 0006037 212.9694 147.1087 13.83851375 37526
PRAETORIAN SDA_611      
1 65574U 25203K   26159.73855211  .00000056  00000+0  40123-4 0  9998
2 65574  81.3022  18.7467 0004892 219.6009 140.4790 13.83308626 37519
PRAETORIAN SDA_612      
1 65575U 25203L   26159.01631145  .00000271  00000+0  22877-3 0  9992
2 65575  81.3037  19.0246 0008594 213.4330 146.6285 13.85038051 37440
PRAETORIAN SDA_613      
1 65576U 25203M   26159.74197659  .00000044  00000+0  29544-4 0  9997
2 65576  81.3005  18.7341 0005132 208.4087 151.6789 13.82764428 37510
PRAETORIAN SDA_614      
1 65577U 25203N   26159.72629470  .00000055  00000+0  38321-4 0  9992
2 65577  81.3020  18.4408 0006587 207.8344 152.2461 13.84777802 37542
PRAETORIAN SDA_615      
1 65578U 25203P   26159.84563473  .00000166  00000+0  13795-3 0  9996
2 65578  81.3025  18.2890 0008455 208.9018 151.1671 13.84435730 37550
PRAETORIAN SDA_616      
1 65579U 25203Q   26159.08652509  .00000152  00000+0  12766-3 0  9994
2 65579  81.3070  19.4893 0004787 219.5695 140.5112 13.83267093 37422
PRAETORIAN SDA_617      
1 65580U 25203R   26159.10735445  .00000054  00000+0  38952-4 0  9997
2 65580  81.3043  19.3019 0006790 210.2050 149.8716 13.83149936 37430
PRAETORIAN SDA_618      
1 65581U 25203S   26159.74082973  .00000195  00000+0  16258-3 0  9999
2 65581  81.3026  18.3193 0009147 212.0019 148.0583 13.84669331 37540
PRAETORIAN SDA_619      
1 65582U 25203T   26159.84381362  .00000187  00000+0  15853-3 0  9996
2 65582  81.3049  18.5075 0007596 209.2205 150.8527 13.83805151 38178
PRAETORIAN SDA_620      
1 65583U 25203U   26159.72604560  .00000154  00000+0  12857-3 0  9997
2 65583  81.3033  18.6361 0007078 205.2931 154.7880 13.83617987 37529
PRAETORIAN SDA_621      
1 65584U 25203V   26159.84556039  .00000079  00000+0  60827-4 0  9995
2 65584  81.3026  18.4465 0006914 202.1142 157.9717 13.83800746 37546
PRAETORIAN SDA_601      
1 65585U 25203W   26159.08900198  .00000024  00000+0  11167-4 0  9994
2 65585  81.3049  19.4330 0004760 223.6759 136.4021 13.83166900 37427
