OBJECT_NAME,OBJECT_ID,EPOCH,MEAN_MOTION,ECCENTRICITY,INCLINATION,RA_OF_ASC_NODE,ARG_OF_PERICENTER,MEAN_ANOMALY,EPHEMERIS_TYPE,CLASSIFICATION_TYPE,NORAD_CAT_ID,ELEMENT_SET_NO,REV_AT_EPOCH,BSTAR,MEAN_MOTION_DOT,MEAN_MOTION_DDOT
SAR-LUPE 2,2007-030A,2026-06-08T19:43:45.099264,15.48899047,.0007453,98.1017,263.2294,152.7074,207.4568,0,U,31797,999,5564,.32042E-3,.17202E-3,0
SAPPHIRE,2013-009C,2026-06-08T19:06:19.848384,14.35238226,.0009974,98.4259,339.4514,274.6585,85.3461,0,U,39088,999,69537,.53498E-4,.11E-5,0
PRAETORIAN SDA_602,2025-203A,2026-06-08T20:33:52.391232,13.84342048,.0005356,81.3036,18.4861,208.0673,152.0195,0,U,65565,999,3754,.25398E-4,.4E-6,0
PRAETORIAN SDA_603,2025-203B,2026-06-08T00:19:11.328384,13.83904955,.00088502,81.3044,19.1782,213.7345,146.3249,0,U,65566,999,3743,.18140179E-3,.213E-5,0
PRAETORIAN SDA_604,2025-203C,2026-06-08T18:01:08.597280,13.83046988,.0004851,81.3058,18.8945,216.9480,143.1342,0,U,65567,999,3751,.84106E-4,.104E-5,0
PRAETORIAN SDA_605,2025-203D,2026-06-08T20:42:54.311040,13.83433721,.0007663,81.3024,18.4616,206.4659,153.6107,0,U,65568,999,3754,.44863E-4,.61E-6,0
PRAETORIAN SDA_606,2025-203E,2026-06-08T20:17:32.494272,13.83406579,.0005275,81.3059,18.6963,205.0271,155.0630,0,U,65569,999,3753,.40253E-4,.56E-6,0
PRAETORIAN SDA_607,2025-203F,2026-06-08T20:36:42.839424,13.84283890,.000825,81.3043,18.3597,211.3769,148.6897,0,U,65570,999,3755,.93334E-4,.116E-5,0
PRAETORIAN SDA_608,2025-203G,2026-06-08T02:38:57.153408,13.83816274,.0005353,81.3012,19.2113,217.6845,142.3937,0,U,65571,999,3743,.63344197E-4,.82E-6,0
PRAETORIAN SDA_609,2025-203H,2026-06-08T02:50:01.207392,13.84284831,.00062403,81.3056,19.1890,210.8341,149.2450,0,U,65572,999,3744,.18235644E-3,.215E-5,0
PRAETORIAN SDA_610,2025-203J,2026-06-08T17:47:09.508128,13.83851375,.0006037,81.3013,18.5857,212.9694,147.1087,0,U,65573,999,3752,.34803E-4,.5E-6,0
PRAETORIAN SDA_611,2025-203K,2026-06-08T17:43:30.902304,13.83308626,.0004892,81.3022,18.7467,219.6009,140.4790,0,U,65574,999,3751,.40123E-4,.56E-6,0
PRAETORIAN SDA_612,2025-203L,2026-06-08T00:23:29.309280,13.85038051,.00085943,81.3037,19.0246,213.4330,146.6285,0,U,65575,999,3744,.22877479E-3,.271E-5,0
PRAETORIAN SDA_613,2025-203M,2026-06-08T17:48:26.777376,13.82764428,.0005132,81.3005,18.7341,208.4087,151.6789,0,U,65576,999,3751,.29544E-4,.44E-6,0
PRAETORIAN SDA_614,2025-203N,2026-06-08T17:25:51.862080,13.84777802,.0006587,81.3020,18.4408,207.8344,152.2461,0,U,65577,999,3754,.38321E-4,.55E-6,0
PRAETORIAN SDA_615,2025-203P,2026-06-08T20:17:42.840672,13.84435730,.0008455,81.3025,18.2890,208.9018,151.1671,0,U,65578,999,3755,.13795E-3,.166E-5,0
PRAETORIAN SDA_616,2025-203Q,2026-06-08T02:04:35.767776,13.83267093,.00047874,81.3070,19.4893,219.5695,140.5112,0,U,65579,999,3742,.12766345E-3,.152E-5,0
PRAETORIAN SDA_617,2025-203R,2026-06-08T02:34:35.424480,13.83149936,.00067906,81.3043,19.3019,210.2050,149.8716,0,U,65580,999,3743,.38952181E-4,.54E-6,0
PRAETORIAN SDA_618,2025-203S,2026-06-08T17:46:47.688672,13.84669331,.0009147,81.3026,18.3193,212.0019,148.0583,0,U,65581,999,3754,.16258E-3,.195E-5,0
PRAETORIAN SDA_619,2025-203T,2026-06-08T20:15:05.496768,13.83805151,.0007596,81.3049,18.5075,209.2205,150.8527,0,U,65582,999,3817,.15853E-3,.187E-5,0
PRAETORIAN SDA_620,2025-203U,2026-06-08T17:25:30.339840,13.83617987,.0007078,81.3033,18.6361,205.2931,154.7880,0,U,65583,999,3752,.12857E-3,.154E-5,0
PRAETORIAN SDA_621,2025-203V,2026-06-08T20:17:36.417696,13.83800746,.0006914,81.3026,18.4465,202.1142,157.9717,0,U,65584,999,3754,.60827E-4,.79E-6,0
PRAETORIAN SDA_601,2025-203W,2026-06-08T02:08:09.771072,13.83166900,.00047607,81.3049,19.4330,223.6759,136.4021,0,U,65585,999,3742,.11167369E-4,.24E-6,0
